{"type": "FeatureCollection", "features": [ {"type": "Feature", "properties": {"norad_id": 45358, "name": "COSMOS 2545 (760)", "group": "glo-ops", "lat": -46.57011064448906, "lon": -71.29028569571616, "alt_km": 19119.124294778478, "timestamp": "2025-12-10T23:33:13.079931+00:00", "meta": {"OBJECT_NAME": "COSMOS 2545 (760)", "OBJECT_ID": "2020-018A", "EPOCH": "2025-12-10T02:42:20.782656", "MEAN_MOTION": 2.13102243, "ECCENTRICITY": 0.00118681, "INCLINATION": 64.4713, "RA_OF_ASC_NODE": 319.0621, "ARG_OF_PERICENTER": 248.8052, "MEAN_ANOMALY": 111.0655, "EPHEMERIS_TYPE": 0, "CLASSIFICATION_TYPE": "U", "NORAD_CAT_ID": 45358, "ELEMENT_SET_NO": 999, "REV_AT_EPOCH": 4463, "BSTAR": 0, "MEAN_MOTION_DOT": -5.1e-07, "MEAN_MOTION_DDOT": 0}, "tle": {"line1": "1 45358U 20018A   25344.11274054 -.00000051  00000+0  00000+0 0  9993", "line2": "2 45358  64.4713 319.0621 0011868 248.8052 111.0655  2.13102243 44631"}}, "geometry": {"type": "Point", "coordinates": [-71.29028569571616, -46.57011064448906]}}, {"type": "Feature", "properties": {"norad_id": 46805, "name": "COSMOS 2547 (705K)", "group": "glo-ops", "lat": 16.14759415509656, "lon": 10.849801459722368, "alt_km": 19122.26109976373, "timestamp": "2025-12-10T23:33:13.079941+00:00", "meta": {"OBJECT_NAME": "COSMOS 2547 (705K)", "OBJECT_ID": "2020-075A", "EPOCH": "2025-12-08T21:25:56.196192", "MEAN_MOTION": 2.13099854, "ECCENTRICITY": 0.00063847, "INCLINATION": 64.5958, "RA_OF_ASC_NODE": 198.8249, "ARG_OF_PERICENTER": 229.7163, "MEAN_ANOMALY": 130.3027, "EPHEMERIS_TYPE": 0, "CLASSIFICATION_TYPE": "U", "NORAD_CAT_ID": 46805, "ELEMENT_SET_NO": 999, "REV_AT_EPOCH": 3985, "BSTAR": 0, "MEAN_MOTION_DOT": 4.5e-07, "MEAN_MOTION_DDOT": 0}, "tle": {"line1": "1 46805U 20075A   25342.89301153  .00000045  00000+0  00000+0 0  9990", "line2": "2 46805  64.5958 198.8249 0006384 229.7163 130.3027  2.13099854 39856"}}, "geometry": {"type": "Point", "coordinates": [10.849801459722368, 16.14759415509656]}}, {"type": "Feature", "properties": {"norad_id": 52984, "name": "COSMOS 2557 (706K)", "group": "glo-ops", "lat": 31.423005340199175, "lon": -21.877819459627744, "alt_km": 19142.944307854756, "timestamp": "2025-12-10T23:33:13.079952+00:00", "meta": {"OBJECT_NAME": "COSMOS 2557 (706K)", "OBJECT_ID": "2022-075A", "EPOCH": "2025-12-07T04:21:00.419904", "MEAN_MOTION": 2.13101754, "ECCENTRICITY": 0.00137049, "INCLINATION": 64.4129, "RA_OF_ASC_NODE": 321.247, "ARG_OF_PERICENTER": 276.9, "MEAN_ANOMALY": 82.939, "EPHEMERIS_TYPE": 0, "CLASSIFICATION_TYPE": "U", "NORAD_CAT_ID": 52984, "ELEMENT_SET_NO": 999, "REV_AT_EPOCH": 2662, "BSTAR": 0, "MEAN_MOTION_DOT": -5.2e-07, "MEAN_MOTION_DDOT": 0}, "tle": {"line1": "1 52984U 22075A   25341.18125486 -.00000052  00000+0  00000+0 0  9990", "line2": "2 52984  64.4129 321.2470 0013704 276.9000  82.9390  2.13101754 26625"}}, "geometry": {"type": "Point", "coordinates": [-21.877819459627744, 31.423005340199175]}}, {"type": "Feature", "properties": {"norad_id": 54031, "name": "COSMOS 2559 (707K)", "group": "glo-ops", "lat": 5.370194830889013, "lon": 138.60821127161148, "alt_km": 19101.12220762636, "timestamp": "2025-12-10T23:33:13.079962+00:00", "meta": {"OBJECT_NAME": "COSMOS 2559 (707K)", "OBJECT_ID": "2022-130A", "EPOCH": "2025-12-10T06:50:46.265280", "MEAN_MOTION": 2.13101297, "ECCENTRICITY": 0.00118632, "INCLINATION": 64.3837, "RA_OF_ASC_NODE": 321.2275, "ARG_OF_PERICENTER": 192.5527, "MEAN_ANOMALY": 167.4169, "EPHEMERIS_TYPE": 0, "CLASSIFICATION_TYPE": "U", "NORAD_CAT_ID": 54031, "ELEMENT_SET_NO": 999, "REV_AT_EPOCH": 2466, "BSTAR": 0, "MEAN_MOTION_DOT": -5.3e-07, "MEAN_MOTION_DDOT": 0}, "tle": {"line1": "1 54031U 22130A   25344.28525770 -.00000053  00000+0  00000+0 0  9992", "line2": "2 54031  64.3837 321.2275 0011863 192.5527 167.4169  2.13101297 24666"}}, "geometry": {"type": "Point", "coordinates": [138.60821127161148, 5.370194830889013]}}, {"type": "Feature", "properties": {"norad_id": 54377, "name": "COSMOS 2564 (761)", "group": "glo-ops", "lat": -55.93020698303315, "lon": 154.6778619381698, "alt_km": 19135.474127208832, "timestamp": "2025-12-10T23:33:13.079972+00:00", "meta": {"OBJECT_NAME": "COSMOS 2564 (761)", "OBJECT_ID": "2022-161A", "EPOCH": "2025-12-10T14:22:10.689312", "MEAN_MOTION": 2.1310202, "ECCENTRICITY": 0.0008624, "INCLINATION": 64.738, "RA_OF_ASC_NODE": 198.9701, "ARG_OF_PERICENTER": 205.0388, "MEAN_ANOMALY": 154.9896, "EPHEMERIS_TYPE": 0, "CLASSIFICATION_TYPE": "U", "NORAD_CAT_ID": 54377, "ELEMENT_SET_NO": 999, "REV_AT_EPOCH": 2361, "BSTAR": 0, "MEAN_MOTION_DOT": 4.7e-07, "MEAN_MOTION_DDOT": 0}, "tle": {"line1": "1 54377U 22161A   25344.59873483  .00000047  00000+0  00000+0 0  9992", "line2": "2 54377  64.7380 198.9701 0008624 205.0388 154.9896  2.13102020 23612"}}, "geometry": {"type": "Point", "coordinates": [154.6778619381698, -55.93020698303315]}}, {"type": "Feature", "properties": {"norad_id": 57517, "name": "COSMOS 2569 (703K)", "group": "glo-ops", "lat": -62.115148039771896, "lon": 18.193384847893764, "alt_km": 19109.809203989662, "timestamp": "2025-12-10T23:33:13.079983+00:00", "meta": {"OBJECT_NAME": "COSMOS 2569 (703K)", "OBJECT_ID": "2023-114A", "EPOCH": "2025-12-09T04:54:16.689312", "MEAN_MOTION": 2.13103889, "ECCENTRICITY": 0.0010394, "INCLINATION": 65.1923, "RA_OF_ASC_NODE": 79.033, "ARG_OF_PERICENTER": 287.0321, "MEAN_ANOMALY": 72.8717, "EPHEMERIS_TYPE": 0, "CLASSIFICATION_TYPE": "U", "NORAD_CAT_ID": 57517, "ELEMENT_SET_NO": 999, "REV_AT_EPOCH": 1821, "BSTAR": 0, "MEAN_MOTION_DOT": -1.4e-07, "MEAN_MOTION_DDOT": 0}, "tle": {"line1": "1 57517U 23114A   25343.20435983 -.00000014  00000+0  00000+0 0  9991", "line2": "2 57517  65.1923  79.0330 0010394 287.0321  72.8717  2.13103889 18214"}}, "geometry": {"type": "Point", "coordinates": [18.193384847893764, -62.115148039771896]}}, {"type": "Feature", "properties": {"norad_id": 63130, "name": "COSMOS 2584 (704K)", "group": "glo-ops", "lat": 9.31375601992177, "lon": 83.59845857635588, "alt_km": 19146.64017227556, "timestamp": "2025-12-10T23:33:13.079993+00:00", "meta": {"OBJECT_NAME": "COSMOS 2584 (704K)", "OBJECT_ID": "2025-042A", "EPOCH": "2025-12-08T03:39:29.178720", "MEAN_MOTION": 2.13102925, "ECCENTRICITY": 0.0007602, "INCLINATION": 64.9737, "RA_OF_ASC_NODE": 79.3022, "ARG_OF_PERICENTER": 215.9611, "MEAN_ANOMALY": 144.0025, "EPHEMERIS_TYPE": 0, "CLASSIFICATION_TYPE": "U", "NORAD_CAT_ID": 63130, "ELEMENT_SET_NO": 999, "REV_AT_EPOCH": 597, "BSTAR": 0, "MEAN_MOTION_DOT": -1.2e-07, "MEAN_MOTION_DDOT": 0}, "tle": {"line1": "1 63130U 25042A   25342.15242105 -.00000012  00000+0  00000+0 0  9994", "line2": "2 63130  64.9737  79.3022 0007602 215.9611 144.0025  2.13102925  5976"}}, "geometry": {"type": "Point", "coordinates": [83.59845857635588, 9.31375601992177]}}, {"type": "Feature", "properties": {"norad_id": 65590, "name": "COSMOS 2596 (708K)", "group": "glo-ops", "lat": 44.80182428778034, "lon": 113.57630908619191, "alt_km": 19160.61746105397, "timestamp": "2025-12-10T23:33:13.080003+00:00", "meta": {"OBJECT_NAME": "COSMOS 2596 (708K)", "OBJECT_ID": "2025-206B", "EPOCH": "2025-12-10T13:06:28.122048", "MEAN_MOTION": 2.13100337, "ECCENTRICITY": 0.00140136, "INCLINATION": 64.7453, "RA_OF_ASC_NODE": 321.5499, "ARG_OF_PERICENTER": 305.8933, "MEAN_ANOMALY": 208.9804, "EPHEMERIS_TYPE": 0, "CLASSIFICATION_TYPE": "U", "NORAD_CAT_ID": 65590, "ELEMENT_SET_NO": 999, "REV_AT_EPOCH": 189, "BSTAR": 0, "MEAN_MOTION_DOT": -5.2e-07, "MEAN_MOTION_DDOT": 0}, "tle": {"line1": "1 65590U 25206B   25344.54615882 -.00000052  00000+0  00000+0 0  9993", "line2": "2 65590  64.7453 321.5499 0014013 305.8933 208.9804  2.13100337  1898"}}, "geometry": {"type": "Point", "coordinates": [113.57630908619191, 44.80182428778034]}}]}